NORAD_CAT_ID,OBJECT_NAME,OBJECT_TYPE,EPOCH,MEAN_MOTION,ECCENTRICITY,INCLINATION,RA_OF_ASC_NODE,ARG_OF_PERICENTER,MEAN_ANOMALY,BSTAR,MEAN_MOTION_DOT,MEAN_MOTION_DDOT,TLE_LINE0,TLE_LINE1,TLE_LINE2,SEMIMAJOR_AXIS,PERIOD,APOGEE,PERIGEE,DECAYED
52633.0,STARLINK-3994,PAYLOAD,2023-01-18 03:32:51,15.08845947,0.000187,53.215,16.158,66.1898,293.92900000000003,0.00042381,6.464e-05,0.0,0 STARLINK-3994,1 52633U 22052AM  23018.14781529  .00006464  00000-0  42381-3 0  9992,2 52633  53.2150  16.1580 0001870  66.1898 293.9290 15.08845947 38288,6917.861999999999,95.437,541.021,538.434,0.0
52633.0,STARLINK-3994,PAYLOAD,2023-01-18 06:43:37,15.08857738,0.0001846,53.215,15.5631,70.4695,289.6496,0.0008822,0.00013787,0.0,0 STARLINK-3994,1 52633U 22052AM  23018.28029349  .00013787  00000-0  88220-3 0  9990,2 52633  53.2150  15.5631 0001846  70.4695 289.6496 15.08857738 37936,6917.826,95.436,540.9680000000001,538.414,0.0
52633.0,STARLINK-3994,PAYLOAD,2023-01-19 01:48:14,15.08860368,0.0001940999999999,53.2157,11.9956,85.4377,274.6837,0.00042074,6.418e-05,0.0,0 STARLINK-3994,1 52633U 22052AM  23019.07516510  .00006418  00000-0  42074-3 0  9999,2 52633  53.2157  11.9956 0001941  85.4377 274.6837 15.08860368 38423,6917.818,95.436,541.026,538.34,0.0
52633.0,STARLINK-3994,PAYLOAD,2023-01-19 08:09:46,15.08875,0.0001631,53.2148,10.8045,81.4768,278.6409,0.00070921,0.00011028,0.0,0 STARLINK-3994,1 52633U 22052AM  23019.34011772  .00011028  00000-0  70921-3 0  9994,2 52633  53.2148  10.8045 0001631  81.4768 278.6409 15.08875000 38468,6917.773,95.435,540.7669999999999,538.51,0.0
52633.0,STARLINK-3994,PAYLOAD,2023-01-19 16:06:41,15.08849611,0.0001568,53.2148,9.3178,89.6181,270.4991,1.4030999999999998e-05,-6.5e-07,0.0,0 STARLINK-3994,1 52633U 22052AM  23019.67131883 -.00000065  00000-0  14031-4 0  9997,2 52633  53.2148   9.3178 0001568  89.6181 270.4991 15.08849611 38517,6917.851,95.437,540.8009999999999,538.631,0.0
52633.0,STARLINK-3994,PAYLOAD,2023-01-20 00:03:38,15.08830993,0.0001683,53.2153,7.8316,97.2067,262.9116,-0.00012683,-2.306e-05,0.0,0 STARLINK-3994,1 52633U 22052AM  23020.00252468 -.00002306  00000-0 -12683-3 0  9990,2 52633  53.2153   7.8316 0001683  97.2067 262.9116 15.08830993 38569,6917.908,95.438,540.937,538.609,0.0
52633.0,STARLINK-3994,PAYLOAD,2023-01-20 09:35:57,15.08842524,0.0001672,53.2148,6.047000000000001,104.8595,255.2582,0.002092,0.00033166,0.0,0 STARLINK-3994,1 52633U 22052AM  23020.39996794  .00033166  00000-0  20920-2 0  9997,2 52633  53.2148   6.0470 0001672 104.8595 255.2582 15.08842524 38626,6917.8730000000005,95.437,540.894,538.581,0.0
52633.0,STARLINK-3994,PAYLOAD,2023-01-21 03:05:12,15.08840114,0.0002448,53.2146,2.7715,128.7703,231.3508,0.0016261,0.00025687,0.0,0 STARLINK-3994,1 52633U 22052AM  23021.12861278  .00025687  00000-0  16261-2 0  9999,2 52633  53.2146   2.7715 0002448 128.7703 231.3508 15.08840114 38735,6917.88,95.438,541.439,538.052,0.0
52633.0,STARLINK-3994,PAYLOAD,2023-01-21 15:48:17,15.08852303,0.0001823,53.215,0.396,83.4328,276.6871,0.00099737,0.00015626,0.0,0 STARLINK-3994,1 52633U 22052AM  23021.65853411  .00015626  00000-0  99737-3 0  9999,2 52633  53.2150   0.3960 0001823  83.4328 276.6871 15.08852303 38819,6917.843000000001,95.437,540.969,538.447,0.0
52633.0,STARLINK-3994,PAYLOAD,2023-01-22 15:39:04,15.08839526,0.0002133999999999,53.2166,355.9343,75.4082,284.7146,0.00067897,0.00010534,0.0,0 STARLINK-3994,1 52633U 22052AM  23022.65213672  .00010534  00000-0  67897-3 0  9994,2 52633  53.2166 355.9343 0002134  75.4082 284.7146 15.08839526 38967,6917.882,95.438,541.2230000000001,538.271,0.0
52633.0,STARLINK-3994,PAYLOAD,2023-01-22 23:36:00,15.08827108,0.0002073,53.2174,354.4469,83.4653,276.6575,0.00053103,8.170000000000001e-05,0.0,0 STARLINK-3994,1 52633U 22052AM  23022.98334075  .00008170  00000-0  53103-3 0  9999,2 52633  53.2174 354.4469 0002073  83.4653 276.6575 15.08827108 39010,6917.92,95.438,541.219,538.351,0.0
52633.0,STARLINK-3994,PAYLOAD,2023-01-24 04:12:57,15.08854347,0.0001732,53.216,349.0923,89.2998,270.8193,0.00099591,0.00015604,0.0,0 STARLINK-3994,1 52633U 22052AM  23024.17566157  .00015604  00000-0  99591-3 0  9991,2 52633  53.2160 349.0923 0001732  89.2998 270.8193 15.08854347 39193,6917.837,95.437,540.9,538.503,0.0
52633.0,STARLINK-3994,PAYLOAD,2023-01-25 04:03:44,15.08854884,0.0001190999999999,53.2155,344.6334,82.3653,277.7474,0.00072873,0.00011334,0.0,0 STARLINK-3994,1 52633U 22052AM  23025.16925960  .00011334  00000-0  72873-3 0  9992,2 52633  53.2155 344.6334 0001191  82.3653 277.7474 15.08854884 39346,6917.835,95.437,540.524,538.876,0.0
52633.0,STARLINK-3994,PAYLOAD,2023-01-25 13:36:03,15.08841162,0.0001729,53.2165,342.8483,90.6322,269.4868,0.00046095,7.056e-05,0.0,0 STARLINK-3994,1 52633U 22052AM  23025.56670153  .00007056  00000-0  46095-3 0  9990,2 52633  53.2165 342.8483 0001729  90.6322 269.4868 15.08841162 39401,6917.877,95.437,540.938,538.5459999999999,0.0
52633.0,STARLINK-3994,PAYLOAD,2023-01-26 07:05:17,15.08862549,0.0001315999999999,53.2159,339.5815,109.2702,250.8433,0.0016642,0.00026313,0.0,0 STARLINK-3994,1 52633U 22052AM  23026.29533863  .00026313  00000-0  16642-2 0  9998,2 52633  53.2159 339.5815 0001316 109.2702 250.8433 15.08862549 39142,6917.811,95.436,540.587,538.766,0.0
52633.0,STARLINK-3994,PAYLOAD,2023-01-27 02:09:55,15.08848697,0.0001475,53.2157,336.0114,122.419,237.6945,0.0010286,0.00016124,0.0,0 STARLINK-3994,1 52633U 22052AM  23027.09022072  .00016124  00000-0  10286-2 0  9999,2 52633  53.2157 336.0114 0001475 122.4190 237.6945 15.08848697 39631,6917.854,95.437,540.739,538.698,0.0
52633.0,STARLINK-3994,PAYLOAD,2023-01-27 05:20:41,15.08858487,0.000132,53.2158,335.4169,118.2358,241.8767,0.00088558,0.00013841,0.0,0 STARLINK-3994,1 52633U 22052AM  23027.22269863  .00013841  00000-0  88558-3 0  9996,2 52633  53.2158 335.4169 0001320 118.2358 241.8767 15.08858487 39281,6917.8240000000005,95.436,540.602,538.776,0.0
52633.0,STARLINK-3994,PAYLOAD,2023-01-28 02:00:42,15.08845844,0.0001459,53.2149,331.5518,144.2692,215.8398,0.0014711,0.00023206,0.0,0 STARLINK-3994,1 52633U 22052AM  23028.08382402  .00023206  00000-0  14711-2 0  9991,2 52633  53.2149 331.5518 0001459 144.2692 215.8398 15.08845844 39788,6917.863,95.437,540.737,538.7180000000001,0.0
52633.0,STARLINK-3994,PAYLOAD,2023-01-28 06:46:51,15.08840911,0.0001361,53.2146,330.6586,135.441,224.6692,0.00091305,0.00014273,0.0,0 STARLINK-3994,1 52633U 22052AM  23028.28254512  .00014273  00000-0  91305-3 0  9992,2 52633  53.2146 330.6586 0001361 135.4410 224.6692 15.08840911 39811,6917.878,95.437,540.684,538.801,0.0
52633.0,STARLINK-3994,PAYLOAD,2023-01-29 01:51:29,15.08849425,0.000113,53.2146,327.0902,109.8691,250.2423,0.0005212,8.019e-05,0.0,0 STARLINK-3994,1 52633U 22052AM  23029.07742412  .00008019  00000-0  52120-3 0  9994,2 52633  53.2146 327.0902 0001130 109.8691 250.2423 15.08849425 39932,6917.852,95.437,540.498,538.935,0.0
52633.0,STARLINK-3994,PAYLOAD,2023-01-29 05:02:15,15.08857254,0.000115,53.2144,326.4951,105.5137,254.5982,0.00073251,0.00011395,0.0,0 STARLINK-3994,1 52633U 22052AM  23029.20990205  .00011395  00000-0  73251-3 0  9993,2 52633  53.2144 326.4951 0001150 105.5137 254.5982 15.08857254 39584,6917.828,95.436,540.488,538.897,0.0
52633.0,STARLINK-3994,PAYLOAD,2023-01-30 01:42:16,15.08842938,0.00013,53.2144,322.6292,95.2264,264.8876,0.0003946,5.998e-05,0.0,0 STARLINK-3994,1 52633U 22052AM  23030.07102614  .00005998  00000-0  39460-3 0  9995,2 52633  53.2144 322.6292 0001300  95.2264 264.8876 15.08842938 40089,6917.871,95.437,540.636,538.837,0.0
52633.0,STARLINK-3994,PAYLOAD,2023-01-30 04:53:02,15.0884544,0.0001231,53.2153,322.0335,99.9544,260.1587,0.00035865,5.425e-05,0.0,0 STARLINK-3994,1 52633U 22052AM  23030.20350530  .00005425  00000-0  35865-3 0  9992,2 52633  53.2153 322.0335 0001231  99.9544 260.1587 15.08845440 39735,6917.864,95.437,540.58,538.877,0.0
52633.0,STARLINK-3994,PAYLOAD,2023-01-30 22:22:17,15.08844484,0.0001321,53.216,318.7611,100.6267,259.4874,0.00030663,4.596e-05,0.0,0 STARLINK-3994,1 52633U 22052AM  23030.93214573  .00004596  00000-0  30663-3 0  9997,2 52633  53.2160 318.7611 0001321 100.6267 259.4874 15.08844484 39843,6917.867,95.437,540.646,538.818,0.0
52633.0,STARLINK-3994,PAYLOAD,2023-01-31 01:33:03,15.08847366,0.0001345,53.2164,318.1664,101.9384,258.1759,0.00027437,4.082e-05,0.0,0 STARLINK-3994,1 52633U 22052AM  23031.06462441  .00004082  00000-0  27437-3 0  9996,2 52633  53.2164 318.1664 0001345 101.9384 258.1759 15.08847366 40234,6917.858,95.437,540.653,538.792,0.0
52633.0,STARLINK-3994,PAYLOAD,2023-01-31 04:43:49,15.08850783,0.0001339,53.2164,317.5707,103.8225,256.2916,0.00035875,5.428e-05,0.0,0 STARLINK-3994,1 52633U 22052AM  23031.19710301  .00005428  00000-0  35875-3 0  9991,2 52633  53.2164 317.5707 0001339 103.8225 256.2916 15.08850783 39883,6917.847,95.437,540.639,538.786,0.0
52633.0,STARLINK-3994,PAYLOAD,2023-02-01 04:34:36,15.08855631,0.0001323,53.2161,313.11,101.9695,258.1446,0.00031053,4.66e-05,0.0,0 STARLINK-3994,1 52633U 22052AM  23032.19069640  .00004660  00000-0  31053-3 0  9996,2 52633  53.2161 313.1100 0001323 101.9695 258.1446 15.08855631 40408,6917.833,95.437,540.613,538.782,0.0
52633.0,STARLINK-3994,PAYLOAD,2023-02-01 14:06:55,15.08830144,0.0001072,53.2158,311.3264,140.2866,219.8205,-0.00032874,-5.514e-05,0.0,0 STARLINK-3994,1 52633U 22052AM  23032.58813710 -.00005514  00000-0 -32874-3 0  9997,2 52633  53.2158 311.3264 0001072 140.2866 219.8205 15.08830144 40467,6917.911,95.438,540.517,539.034,0.0
52633.0,STARLINK-3994,PAYLOAD,2023-02-02 04:25:23,15.08838521,0.0001031,53.2146,308.6528,102.7652,257.3455,0.00017066,2.429e-05,0.0,0 STARLINK-3994,1 52633U 22052AM  23033.18430144  .00002429  00000-0  17066-3 0  9996,2 52633  53.2146 308.6528 0001031 102.7652 257.3455 15.08838521 40187,6917.885,95.438,540.463,539.037,0.0
